P/2016 R4 (Gibbs),e,10.8591,168.2253,174.0694,5.340927,0.0798508,0.47439673,288.0061,06/02.0/2026,2000,g 12.5,4.0
# From MPC194149
C/2016 X1 (Lemmon),e,26.4628,256.3145,224.6863,4146,0.0000037,0.99817441,0.0000,05/02.1078/2019,2000,g  6.0,4.0
# From MPC194150
C/2017 AB5 (PANSTARRS),h,02/20.4540/2018,32.4351,42.6097,78.4462,1.000831,9.215369,2000,5.5,4.0
# From MPC194150
C/2017 B3 (LINEAR),e,54.2625,2.2991,284.6757,2530,0.0000077,0.99844709,0.0000,01/29.7481/2019,2000,g  6.0,4.0
# From MPC194150
P/2017 D1 (Fuls),e,20.7721,82.1824,8.1576,4.819277,0.0931604,0.43773500,337.3474,06/02.0/2026,2000,g 14.0,4.0
# From MPC194151
C/2017 E3 (PANSTARRS),h,06/06.9459/2017,70.6659,220.7381,334.1487,1.004257,5.899042,2000,6.5,4.0
# From MPC194151
C/2017 F2 (PANSTARRS),h,11/27.1424/2017,42.5311,38.6415,134.7670,1.002205,6.899098,2000,7.5,4.0
# From MPC194151
P/2017 FL36 (PANSTARRS),e,15.7017,313.4536,90.9969,2.929736,0.1965447,0.03440383,57.6178,06/02.0/2026,2000,g 14.7,4.0
# From MPC194151
C/2017 K1 (PANSTARRS),e,154.0287,225.6809,4.0906,55291,0.0000001,0.99986867,0.0000,03/12.4984/2018,2000,g  7.0,4.0
# From MPEC 2026-HH0
C/2017 K2 (PANSTARRS),e,87.6445,88.2225,236.1460,1120,0.0000263,0.99839269,0.0000,12/17.8392/2022,2000,g  1.5,4.0
# From MPC194152
C/2017 K5 (PANSTARRS),h,03/24.3683/2020,82.2857,102.4454,171.8568,1.002655,7.667408,2000,5.0,4.0
# From MPC194152
C/2017 M4 (ATLAS),e,105.6477,65.9700,167.3300,20818,0.0000003,0.99984481,0.0000,01/17.2543/2019,2000,g  6.0,4.0
# From MPC194152
C/2017 M5 (TOTAS),h,05/30.3867/2018,15.8720,216.3043,92.7580,1.001720,6.006470,2000,6.5,4.0
# From MPC194152
P/2017 P1 (PANSTARRS),e,7.6886,221.3517,122.9134,7.918652,0.0442310,0.30848058,128.6380,06/02.0/2026,2000,g 10.0,4.0
# From MPC194153
C/2017 S7 (Lemmon),h,05/26.1322/2017,124.2264,262.6615,187.7874,1.000227,7.644368,2000,7.0,4.0
# From MPC194153
P/2017 S8 (PANSTARRS),e,29.8445,191.4722,254.9835,2.778236,0.2128386,0.39114681,288.3414,06/02.0/2026,2000,g 16.0,4.0
# From MPC194153
C/2017 T2 (PANSTARRS),e,57.2535,64.3816,92.7821,1784,0.0000131,0.99910282,0.0000,05/06.8437/2020,2000,g  5.0,4.0
# From MPC194153
P/2017 TW13 (Lemmon),e,44.8855,322.0422,120.1131,7.139687,0.0516637,0.71031632,149.8300,06/02.0/2026,2000,g 15.0,2.0
# From MPC194153
P/2017 U3 (PANSTARRS),e,15.9274,165.0452,296.6858,4.918141,0.0903655,0.10094739,234.8518,06/02.0/2026,2000,g 11.0,4.0
# From MPC194153
C/2017 U4 (PANSTARRS),e,158.2047,245.9448,159.2769,26792,0.0000002,0.99971049,0.0000,09/22.9086/2018,2000,g  7.0,4.0
# From MPC194154
C/2017 U7 (PANSTARRS),h,09/15.9727/2019,142.6385,276.3166,326.3317,1.002346,6.410016,2000,8.3,2.0
# From MPC194154
P/2017 W3 (Gibbs),e,18.2016,210.0115,327.8151,7.816287,0.0451028,0.50758730,136.0181,06/02.0/2026,2000,g 10.5,4.0
# From MPC194155
C/2018 A6 (Gibbs),e,77.2017,340.4998,264.2169,14.98960,0.0169832,0.79903525,42.7668,06/02.0/2026,2000,g  9.0,4.0
# From MPC194156
P/2018 H2 (PANSTARRS),e,7.4445,67.5452,119.3986,4.419452,0.1060844,0.53973554,329.3738,06/02.0/2026,2000,g 16.6,2.0
# From MPEC 2021-R75
C/2018 KJ3 (Lemmon),e,136.6274,91.6921,217.4926,620.2159,0.0000638,0.99416840,0.0000,09/07.4753/2019,2000,g 12.2,2.0
# From MPC194156
C/2018 N2 (ASASSN),h,11/11.9604/2019,77.4331,25.2750,24.6317,1.002098,3.138166,2000,6.0,4.0
# From MPC194157
P/2018 P4 (PANSTARRS),e,23.0619,353.1002,8.5598,6.698334,0.0568531,0.44835983,157.3033,06/02.0/2026,2000,g 12.0,4.0
# From MPC194157
C/2018 S2 (TESS),e,64.1203,85.0777,291.0313,14.36190,0.0181087,0.61701623,50.1152,06/02.0/2026,2000,g  7.5,4.0
# From MPC194157
C/2018 U1 (Lemmon),e,108.3284,75.4966,180.2794,7651,0.0000015,0.99934888,0.0000,11/01.4922/2021,2000,g  5.0,4.0
# From MPC194158
P/2018 VN2 (Leonard),e,18.2553,226.4278,138.9337,4.059968,0.1204814,0.47793449,350.9905,06/02.0/2026,2000,g 15.0,4.0
# From MPC194158
A/2018 W3,e,104.8272,251.6652,313.7931,669.2554,0.0000569,0.99361070,0.0000,04/13.2065/2021,2000,g 10.5,2.0
# From MPC194159
P/2018 Y2 (Africano),e,11.6972,297.1075,162.4649,7.461076,0.0483617,0.47979563,130.8027,06/02.0/2026,2000,g 11.5,4.0
# From MPC194159
P/2019 A2 (ATLAS),e,14.8788,139.3632,324.0157,5.710273,0.0722302,0.38328896,198.2739,06/02.0/2026,2000,g 10.5,4.0
# From MPC194159
P/2019 A3 (PANSTARRS),e,15.3619,31.0796,325.5800,3.141757,0.1769885,0.26864897,145.3558,06/02.0/2026,2000,g 16.0,4.0
# From MPC194159
P/2019 A4 (PANSTARRS),e,13.3069,119.2260,343.5566,2.613747,0.2332431,0.08752422,276.1518,06/02.0/2026,2000,g 15.0,4.0
# From MPC194159
C/2019 A5 (PANSTARRS),e,67.5575,146.4800,355.9200,21.54625,0.0098548,0.70675664,25.1403,06/02.0/2026,2000,g  9.5,4.0
# From MPC194159
P/2019 B2 (Groeller),e,16.9495,175.5517,0.4190,3.935749,0.1262301,0.35784800,326.3018,06/02.0/2026,2000,g 14.5,4.0
# From MPC194160
C/2019 B3 (PANSTARRS),e,66.6377,358.3958,263.9933,3054,0.0000058,0.99776326,0.0000,01/19.2274/2021,2000,g  5.5,4.0
# From MPC194160
C/2019 E3 (ATLAS),e,84.3310,347.1765,280.7280,7989,0.0000014,0.99870899,0.0000,11/15.9248/2023,2000,g  2.5,4.0
# From MPC194160
C/2019 F1 (ATLAS-Africano),e,54.2920,38.6699,251.2510,13850,0.0000006,0.99973964,0.0000,06/20.6315/2021,2000,g  5.5,4.0
# From MPC194161
C/2019 K7 (Smith),e,103.4600,308.0519,27.2969,11955,0.0000008,0.99962607,0.0000,06/16.3224/2020,2000,g  6.0,4.0
# From MPEC 2026-KB8
P/2019 LD2 (ATLAS),e,11.7523,177.4438,116.0452,5.143911,0.0844819,0.13673245,196.4291,06/02.0/2026,2000,g  8.5,4.0
# From MPC194162
C/2019 L3 (ATLAS),h,01/10.2337/2022,48.3469,290.7100,171.8251,1.003558,3.563609,2000,4.5,4.0
# From MPC194162
P/2019 LM4 (Palomar),e,36.4087,72.8605,68.2476,5.700937,0.0724077,0.58659540,183.7161,06/02.0/2026,2000,g  9.5,4.0
# From MPC194162
C/2019 M4 (TESS),e,65.7180,52.6310,260.3085,12725,0.0000007,0.99927786,0.0000,09/08.1058/2019,2000,g  5.0,4.0
# From MPC194162
C/2019 N1 (ATLAS),e,82.6161,13.4709,193.3425,935.4812,0.0000344,0.99817976,0.0000,11/30.4189/2020,2000,g  7.5,4.0
# From MPC194162
A/2019 N2,e,89.5430,276.4085,346.5166,74.98100,0.0015180,0.97437261,0.0000,08/21.3896/2019,2000,g 12.5,2.0
# From MPC194162
C/2019 NJ3 (Lemmon),h,10/21.6041/2020,99.3017,142.4923,246.8688,1.001470,4.362479,2000,9.0,4.0
# From MPEC 2026-K60
C/2019 O2 (PANSTARRS),e,93.2770,48.2667,129.5590,58.86245,0.0021825,0.83555215,2.5167,06/02.0/2026,2000,g  5.0,4.0
# From MPC194162
C/2019 O3 (Palomar),h,03/06.9788/2021,89.7897,300.4845,60.0632,1.001304,8.819802,2000,3.5,4.0
# From MPC194163
C/2019 Q1 (Lemmon),h,07/22.6468/2020,155.7042,42.4797,56.2238,1.002512,4.997212,2000,8.5,4.0
# From MPC194163
P/2019 S2 (PANSTARRS),e,10.4619,93.1238,216.9219,4.748273,0.0952578,0.20465623,253.8809,06/02.0/2026,2000,g 13.5,4.0
# From MPC194163
P/2019 S3 (PANSTARRS),e,8.6916,150.1069,213.1429,3.413630,0.1562714,0.47061730,25.7470,06/02.0/2026,2000,g 18.3,4.0
# From MPC194163
A/2019 T1,e,120.7846,6.9109,90.9314,38.61668,0.0041072,0.88935958,8.0685,06/02.0/2026,2000,g 13.0,2.0
# From MPC194163
C/2019 T2 (Lemmon),e,111.3265,155.6488,239.3559,2387,0.0000085,0.99889297,0.0000,04/21.9831/2021,2000,g  9.0,4.0
# From MPC194163
C/2019 T3 (ATLAS),e,121.8927,139.5537,112.4883,6954,0.0000017,0.99914416,0.0000,03/05.2270/2021,2000,g  6.8,4.0
# From MPC194163
C/2019 T4 (ATLAS),e,53.6257,199.8623,351.1256,914.2215,0.0000357,0.99536608,0.0000,06/08.8522/2022,2000,g  5.0,4.0
# From MPC194164
P/2019 U4 (PANSTARRS),e,11.6988,199.9749,181.1332,3.517419,0.1494060,0.47551397,5.1245,06/02.0/2026,2000,g 19.0,4.0
# From MPC194164
C/2019 U5 (PANSTARRS),e,113.5178,2.5844,181.4498,36070,0.0000001,0.99989948,0.0000,03/29.2279/2023,2000,g  4.5,4.0
# From MPC194164
P/2019 V2 (Groeller),e,11.8084,189.1029,335.6931,7.495989,0.0480243,0.33224132,98.5728,06/02.0/2026,2000,g 10.0,4.0
# From MPC194164
P/2019 W1 (PANSTARRS),e,23.4619,35.3404,18.9375,4.548454,0.1016034,0.26696776,261.8583,06/02.0/2026,2000,g 12.9,4.0
# From MPC194164
P/2019 X1 (Pruyne),e,10.2407,43.6504,37.1038,6.182469,0.0641152,0.30339817,160.5475,06/02.0/2026,2000,g 10.4,4.0
# From MPC194164
P/2019 X2 (Pan-STARRS),e,15.8986,250.8488,213.5411,3.632758,0.1423474,0.50048902,336.3217,06/02.0/2026,2000,g 18.0,4.0
# From MPC194165
C/2020 A3 (ATLAS),e,146.6127,120.7949,268.2167,2916,0.0000063,0.99802639,0.0000,06/25.4014/2019,2000,g  8.0,4.0
# From MPC194166
P/2020 B4 (Sheppard),e,11.6009,185.9216,342.2126,7.978580,0.0437336,0.19332983,72.2989,06/02.0/2026,2000,g 10.5,4.0
# From MPC194166
C/2020 F2 (ATLAS),h,07/11.7568/2022,163.5905,250.2898,48.2206,1.001123,8.814958,2000,4.5,4.0
# From MPC194166
C/2020 F5 (MASTER),e,52.2489,350.5787,310.5395,161.0236,0.0004824,0.97315500,0.0000,03/15.7304/2021,2000,g  6.5,3.2
# From MPC194166
C/2020 F7 (Lemmon),e,93.9994,321.8085,228.0251,608.8830,0.0000656,0.99123418,0.0000,11/14.3883/2021,2000,g  7.0,4.0
# From MPC194166
P/2020 G1 (Pimentel),e,18.5045,240.1169,207.6232,3.595159,0.1445862,0.86042310,327.3409,06/02.0/2026,2000,g 17.0,4.0
# From MPC194166
C/2020 H5 (Robinson),e,70.2031,210.5956,326.2724,7810,0.0000014,0.99880479,0.0000,12/10.2456/2020,2000,g  5.0,4.0
# From MPC194167
C/2020 H6 (ATLAS),e,80.0095,213.6584,20.1706,1747,0.0000135,0.99731260,0.0000,09/29.3149/2021,2000,g  8.0,3.2
# From MPC194167
C/2020 H11 (PANSTARRS-Lemmon),e,151.3677,303.0585,91.3454,5007,0.0000028,0.99847779,0.0000,09/11.1718/2020,2000,g  8.5,4.0
# From MPC194167
C/2020 J1 (SONEAR),e,142.3120,226.5458,341.5037,3562,0.0000046,0.99906145,0.0000,04/17.3527/2021,2000,g  8.5,3.2
# From MPC194167
C/2020 K1 (PANSTARRS),e,89.6725,94.3658,213.9464,1529,0.0000165,0.99798889,0.0000,05/08.2470/2023,2000,g  5.5,4.0
# From MPC194167
C/2020 K2 (PANSTARRS),h,08/02.9595/2020,90.9927,288.4421,67.2781,1.000179,8.879616,2000,6.5,4.0
# From MPC194167
C/2020 K6 (Rankin),h,09/13.7178/2021,103.6269,291.6035,44.2321,1.001039,5.864485,2000,8.0,4.0
# From MPC194168
C/2020 K7 (PANSTARRS),e,32.0445,286.1314,357.9884,93.45625,0.0010909,0.93172686,2.6321,06/02.0/2026,2000,g  8.0,4.0
# From MPC194168
P/2020 K9 (Lemmon-PANSTARRS),e,23.1826,166.2387,197.1156,4.209006,0.1141392,0.31971503,221.2531,06/02.0/2026,2000,g 12.5,4.0
# From MPC194168
